{"type": "FeatureCollection", "features": [ {"type": "Feature", "properties": {"norad_id": 39586, "name": "COSMOS 2251 DEB", "group": "cosmos-2251-debris", "lat": 46.25652538891896, "lon": 34.17778759820523, "alt_km": 857.4212254569402, "timestamp": "2025-12-10T20:49:52.950910+00:00", "meta": {"OBJECT_NAME": "COSMOS 2251 DEB", "OBJECT_ID": "1993-036BUR", "EPOCH": "2025-12-04T00:26:07.876608", "MEAN_MOTION": 14.21195867, "ECCENTRICITY": 0.01003221, "INCLINATION": 74.0095, "RA_OF_ASC_NODE": 243.9042, "ARG_OF_PERICENTER": 20.3845, "MEAN_ANOMALY": 357.5964, "EPHEMERIS_TYPE": 0, "CLASSIFICATION_TYPE": "U", "NORAD_CAT_ID": 39586, "ELEMENT_SET_NO": 999, "REV_AT_EPOCH": 60848, "BSTAR": 0.00088936605, "MEAN_MOTION_DOT": 2.011e-05, "MEAN_MOTION_DDOT": 0}, "tle": {"line1": "1 39586U 93036BUR 25338.01814672  .00002011  00000+0  88937-3 0  9993", "line2": "2 39586  74.0095 243.9042 0100322  20.3845 357.5964 14.21195867608481"}}, "geometry": {"type": "Point", "coordinates": [34.17778759820523, 46.25652538891896]}}, {"type": "Feature", "properties": {"norad_id": 39591, "name": "COSMOS 2251 DEB", "group": "cosmos-2251-debris", "lat": -56.367165757896025, "lon": 95.75267787850633, "alt_km": 770.9830218788693, "timestamp": "2025-12-10T20:49:52.950920+00:00", "meta": {"OBJECT_NAME": "COSMOS 2251 DEB", "OBJECT_ID": "1993-036BUW", "EPOCH": "2025-12-07T12:37:20.058240", "MEAN_MOTION": 14.41797082, "ECCENTRICITY": 0.00291403, "INCLINATION": 74.0183, "RA_OF_ASC_NODE": 256.4312, "ARG_OF_PERICENTER": 11.534, "MEAN_ANOMALY": 168.8103, "EPHEMERIS_TYPE": 0, "CLASSIFICATION_TYPE": "U", "NORAD_CAT_ID": 39591, "ELEMENT_SET_NO": 999, "REV_AT_EPOCH": 61701, "BSTAR": 0.00067199948, "MEAN_MOTION_DOT": 2.18e-05, "MEAN_MOTION_DDOT": 0}, "tle": {"line1": "1 39591U 93036BUW 25341.52592660  .00002180  00000+0  67200-3 0  9996", "line2": "2 39591  74.0183 256.4312 0029140  11.5340 168.8103 14.41797082617010"}}, "geometry": {"type": "Point", "coordinates": [95.75267787850633, -56.367165757896025]}}, {"type": "Feature", "properties": {"norad_id": 40218, "name": "COSMOS 2251 DEB", "group": "cosmos-2251-debris", "lat": 42.10366483013432, "lon": 57.3042461163182, "alt_km": 760.5046442561561, "timestamp": "2025-12-10T20:49:52.950930+00:00", "meta": {"OBJECT_NAME": "COSMOS 2251 DEB", "OBJECT_ID": "1993-036BUX", "EPOCH": "2025-12-02T02:20:48.132384", "MEAN_MOTION": 14.41546301, "ECCENTRICITY": 0.00163619, "INCLINATION": 74.0309, "RA_OF_ASC_NODE": 268.5457, "ARG_OF_PERICENTER": 353.795, "MEAN_ANOMALY": 6.3, "EPHEMERIS_TYPE": 0, "CLASSIFICATION_TYPE": "U", "NORAD_CAT_ID": 40218, "ELEMENT_SET_NO": 999, "REV_AT_EPOCH": 58708, "BSTAR": 0.00047133972, "MEAN_MOTION_DOT": 1.508e-05, "MEAN_MOTION_DDOT": 0}, "tle": {"line1": "1 40218U 93036BUX 25336.09777931  .00001508  00000+0  47134-3 0  9993", "line2": "2 40218  74.0309 268.5457 0016361 353.7950   6.3000 14.41546301587082"}}, "geometry": {"type": "Point", "coordinates": [57.3042461163182, 42.10366483013432]}}, {"type": "Feature", "properties": {"norad_id": 40223, "name": "COSMOS 2251 DEB", "group": "cosmos-2251-debris", "lat": 46.014118854141024, "lon": 109.91698440260565, "alt_km": 557.0601128946764, "timestamp": "2025-12-10T20:49:52.950940+00:00", "meta": {"OBJECT_NAME": "COSMOS 2251 DEB", "OBJECT_ID": "1993-036BVC", "EPOCH": "2025-12-10T14:17:20.109696", "MEAN_MOTION": 15.03183139, "ECCENTRICITY": 0.00152452, "INCLINATION": 73.938, "RA_OF_ASC_NODE": 93.1094, "ARG_OF_PERICENTER": 294.1095, "MEAN_ANOMALY": 79.7132, "EPHEMERIS_TYPE": 0, "CLASSIFICATION_TYPE": "U", "NORAD_CAT_ID": 40223, "ELEMENT_SET_NO": 999, "REV_AT_EPOCH": 59342, "BSTAR": 0.0071622016, "MEAN_MOTION_DOT": 0.00098423, "MEAN_MOTION_DDOT": 0}, "tle": {"line1": "1 40223U 93036BVC 25344.59537164  .00098423  00000+0  71622-2 0  9995", "line2": "2 40223  73.9380  93.1094 0015245 294.1095  79.7132 15.03183139593422"}}, "geometry": {"type": "Point", "coordinates": [109.91698440260565, 46.014118854141024]}}, {"type": "Feature", "properties": {"norad_id": 40228, "name": "COSMOS 2251 DEB", "group": "cosmos-2251-debris", "lat": 28.942203209550534, "lon": -86.91457491945528, "alt_km": 746.2299769654155, "timestamp": "2025-12-10T20:49:52.950950+00:00", "meta": {"OBJECT_NAME": "COSMOS 2251 DEB", "OBJECT_ID": "1993-036BVH", "EPOCH": "2025-12-07T13:33:16.737984", "MEAN_MOTION": 14.40975918, "ECCENTRICITY": 0.00238751, "INCLINATION": 74.0543, "RA_OF_ASC_NODE": 270.0925, "ARG_OF_PERICENTER": 332.416, "MEAN_ANOMALY": 209.1246, "EPHEMERIS_TYPE": 0, "CLASSIFICATION_TYPE": "U", "NORAD_CAT_ID": 40228, "ELEMENT_SET_NO": 999, "REV_AT_EPOCH": 58846, "BSTAR": 0.0006394623, "MEAN_MOTION_DOT": 2.035e-05, "MEAN_MOTION_DDOT": 0}, "tle": {"line1": "1 40228U 93036BVH 25341.56477706  .00002035  00000+0  63946-3 0  9994", "line2": "2 40228  74.0543 270.0925 0023875 332.4160 209.1246 14.40975918588463"}}, "geometry": {"type": "Point", "coordinates": [-86.91457491945528, 28.942203209550534]}}, {"type": "Feature", "properties": {"norad_id": 40230, "name": "COSMOS 2251 DEB", "group": "cosmos-2251-debris", "lat": 41.19622525862016, "lon": 35.900815082291615, "alt_km": 736.1478768774741, "timestamp": "2025-12-10T20:49:52.950960+00:00", "meta": {"OBJECT_NAME": "COSMOS 2251 DEB", "OBJECT_ID": "1993-036BVK", "EPOCH": "2025-12-05T11:49:12.794880", "MEAN_MOTION": 14.49259606, "ECCENTRICITY": 0.00191133, "INCLINATION": 74.0458, "RA_OF_ASC_NODE": 240.4744, "ARG_OF_PERICENTER": 299.5216, "MEAN_ANOMALY": 242.5097, "EPHEMERIS_TYPE": 0, "CLASSIFICATION_TYPE": "U", "NORAD_CAT_ID": 40230, "ELEMENT_SET_NO": 999, "REV_AT_EPOCH": 58866, "BSTAR": 0.0014637297, "MEAN_MOTION_DOT": 5.571e-05, "MEAN_MOTION_DDOT": 0}, "tle": {"line1": "1 40230U 93036BVK 25339.49250920  .00005571  00000+0  14637-2 0  9993", "line2": "2 40230  74.0458 240.4744 0019113 299.5216 242.5097 14.49259606588661"}}, "geometry": {"type": "Point", "coordinates": [35.900815082291615, 41.19622525862016]}}, {"type": "Feature", "properties": {"norad_id": 40233, "name": "COSMOS 2251 DEB", "group": "cosmos-2251-debris", "lat": -70.96471701896685, "lon": -16.698018322228872, "alt_km": 698.3729985903183, "timestamp": "2025-12-10T20:49:52.950969+00:00", "meta": {"OBJECT_NAME": "COSMOS 2251 DEB", "OBJECT_ID": "1993-036BVN", "EPOCH": "2025-12-10T08:07:20.571456", "MEAN_MOTION": 14.58369028, "ECCENTRICITY": 0.00455232, "INCLINATION": 73.9396, "RA_OF_ASC_NODE": 107.7032, "ARG_OF_PERICENTER": 183.0007, "MEAN_ANOMALY": 177.0892, "EPHEMERIS_TYPE": 0, "CLASSIFICATION_TYPE": "U", "NORAD_CAT_ID": 40233, "ELEMENT_SET_NO": 999, "REV_AT_EPOCH": 59102, "BSTAR": 0.0022996574, "MEAN_MOTION_DOT": 0.00010791, "MEAN_MOTION_DDOT": 0}, "tle": {"line1": "1 40233U 93036BVN 25344.33843254  .00010791  00000+0  22997-2 0  9991", "line2": "2 40233  73.9396 107.7032 0045523 183.0007 177.0892 14.58369028591026"}}, "geometry": {"type": "Point", "coordinates": [-16.698018322228872, -70.96471701896685]}}, {"type": "Feature", "properties": {"norad_id": 40236, "name": "COSMOS 2251 DEB", "group": "cosmos-2251-debris", "lat": 39.95907983019285, "lon": -47.64108820529119, "alt_km": 1287.3740031688712, "timestamp": "2025-12-10T20:49:52.950980+00:00", "meta": {"OBJECT_NAME": "COSMOS 2251 DEB", "OBJECT_ID": "1993-036BVR", "EPOCH": "2025-12-07T17:52:23.026080", "MEAN_MOTION": 13.24639967, "ECCENTRICITY": 0.05366128, "INCLINATION": 73.5349, "RA_OF_ASC_NODE": 151.6266, "ARG_OF_PERICENTER": 32.3576, "MEAN_ANOMALY": 330.9258, "EPHEMERIS_TYPE": 0, "CLASSIFICATION_TYPE": "U", "NORAD_CAT_ID": 40236, "ELEMENT_SET_NO": 999, "REV_AT_EPOCH": 53558, "BSTAR": 0.0015786255, "MEAN_MOTION_DOT": 1.455e-05, "MEAN_MOTION_DDOT": 0}, "tle": {"line1": "1 40236U 93036BVR 25341.74471095  .00001455  00000+0  15786-2 0  9991", "line2": "2 40236  73.5349 151.6266 0536612  32.3576 330.9258 13.24639967535580"}}, "geometry": {"type": "Point", "coordinates": [-47.64108820529119, 39.95907983019285]}}, {"type": "Feature", "properties": {"norad_id": 40238, "name": "COSMOS 2251 DEB", "group": "cosmos-2251-debris", "lat": -41.64847830340188, "lon": -98.73221991973095, "alt_km": 1584.3050559293597, "timestamp": "2025-12-10T20:49:52.950990+00:00", "meta": {"OBJECT_NAME": "COSMOS 2251 DEB", "OBJECT_ID": "1993-036BVT", "EPOCH": "2025-12-09T21:58:52.795776", "MEAN_MOTION": 13.25105207, "ECCENTRICITY": 0.05495016, "INCLINATION": 73.9881, "RA_OF_ASC_NODE": 67.934, "ARG_OF_PERICENTER": 40.3773, "MEAN_ANOMALY": 323.6787, "EPHEMERIS_TYPE": 0, "CLASSIFICATION_TYPE": "U", "NORAD_CAT_ID": 40238, "ELEMENT_SET_NO": 999, "REV_AT_EPOCH": 53999, "BSTAR": 0.0016484938, "MEAN_MOTION_DOT": 1.598e-05, "MEAN_MOTION_DDOT": 0}, "tle": {"line1": "1 40238U 93036BVT 25343.91588884  .00001598  00000+0  16485-2 0  9994", "line2": "2 40238  73.9881  67.9340 0549501  40.3773 323.6787 13.25105207539999"}}, "geometry": {"type": "Point", "coordinates": [-98.73221991973095, -41.64847830340188]}}, {"type": "Feature", "properties": {"norad_id": 40239, "name": "COSMOS 2251 DEB", "group": "cosmos-2251-debris", "lat": -10.96403546264982, "lon": 102.59936135413608, "alt_km": 746.9640380532765, "timestamp": "2025-12-10T20:49:52.950999+00:00", "meta": {"OBJECT_NAME": "COSMOS 2251 DEB", "OBJECT_ID": "1993-036BVU", "EPOCH": "2025-12-10T14:12:54.993888", "MEAN_MOTION": 14.6197936, "ECCENTRICITY": 0.00847577, "INCLINATION": 74.0316, "RA_OF_ASC_NODE": 279.9471, "ARG_OF_PERICENTER": 31.8637, "MEAN_ANOMALY": 148.8031, "EPHEMERIS_TYPE": 0, "CLASSIFICATION_TYPE": "U", "NORAD_CAT_ID": 40239, "ELEMENT_SET_NO": 999, "REV_AT_EPOCH": 59579, "BSTAR": 0.00074088681, "MEAN_MOTION_DOT": 3.879e-05, "MEAN_MOTION_DDOT": 0}, "tle": {"line1": "1 40239U 93036BVU 25344.59230317  .00003879  00000+0  74089-3 0  9994", "line2": "2 40239  74.0316 279.9471 0084757  31.8637 148.8031 14.61979360595795"}}, "geometry": {"type": "Point", "coordinates": [102.59936135413608, -10.96403546264982]}}]}